[{"OBJECT_NAME":"NETSAT-1","OBJECT_ID":"2020-068W","EPOCH":"2026-03-09T22:42:38.711232","MEAN_MOTION":15.32042482,"ECCENTRICITY":0.00057337,"INCLINATION":97.8751,"RA_OF_ASC_NODE":63.2583,"ARG_OF_PERICENTER":18.5877,"MEAN_ANOMALY":341.5572,"EPHEMERIS_TYPE":0,"CLASSIFICATION_TYPE":"U","NORAD_CAT_ID":46506,"ELEMENT_SET_NO":999,"REV_AT_EPOCH":30009,"BSTAR":0.00059222329,"MEAN_MOTION_DOT":0.00018269,"MEAN_MOTION_DDOT":0},{"OBJECT_NAME":"STARLINK-35338","OBJECT_ID":"2025-245S","EPOCH":"2026-03-09T20:43:36.848352","MEAN_MOTION":15.30211011,"ECCENTRICITY":7.57e-5,"INCLINATION":53.1583,"RA_OF_ASC_NODE":283.0517,"ARG_OF_PERICENTER":104.2506,"MEAN_ANOMALY":255.8579,"EPHEMERIS_TYPE":0,"CLASSIFICATION_TYPE":"U","NORAD_CAT_ID":66250,"ELEMENT_SET_NO":999,"REV_AT_EPOCH":2118,"BSTAR":0.00090178873,"MEAN_MOTION_DOT":0.00026453,"MEAN_MOTION_DDOT":0}]
